{
  "type": "FeatureCollection",
  "features": [
    {
      "type": "Feature",
      "properties": {
        "norad_id": 40010,
        "name": "KAZEOSAT 2",
        "group": "resource",
        "lat": -40.227133011614704,
        "lon": -152.97333788372993,
        "alt_km": 624.5843125023721,
        "timestamp": "2025-12-22T18:58:53.077771+00:00",
        "meta_object_name": "KAZEOSAT 2",
        "meta_object_id": "2014-033A",
        "meta_epoch": "2025-12-22T06:13:43.300416",
        "meta_mean_motion": 14.85181241,
        "meta_eccentricity": 0.0008481,
        "meta_inclination": 97.5494,
        "meta_ra_of_asc_node": 200.082,
        "meta_arg_of_pericenter": 173.5418,
        "meta_mean_anomaly": 186.5908,
        "meta_ephemeris_type": 0,
        "meta_classification_type": "U",
        "meta_norad_cat_id": 40010,
        "meta_element_set_no": 999,
        "meta_rev_at_epoch": 62269,
        "meta_bstar": 7.6509258e-05,
        "meta_mean_motion_dot": 6.06e-06,
        "meta_mean_motion_ddot": 0,
        "tle_line1": "1 40010U 14033A   25356.25952894  .00000606  00000+0  76509-4 0  9993",
        "tle_line2": "2 40010  97.5494 200.0820 0008481 173.5418 186.5908 14.85181241622694"
      },
      "geometry": {
        "type": "Point",
        "coordinates": [
          -152.97333788372993,
          -40.227133011614704
        ]
      }
    },
    {
      "type": "Feature",
      "properties": {
        "norad_id": 40011,
        "name": "HODOYOSHI-4",
        "group": "resource",
        "lat": 48.41047129817717,
        "lon": 13.762127642785357,
        "alt_km": 587.8241984002952,
        "timestamp": "2025-12-22T18:58:53.077781+00:00",
        "meta_object_name": "HODOYOSHI-4",
        "meta_object_id": "2014-033B",
        "meta_epoch": "2025-12-22T05:28:43.741056",
        "meta_mean_motion": 14.87514033,
        "meta_eccentricity": 0.00239134,
        "meta_inclination": 97.5407,
        "meta_ra_of_asc_node": 184.6438,
        "meta_arg_of_pericenter": 168.6118,
        "meta_mean_anomaly": 191.5645,
        "meta_ephemeris_type": 0,
        "meta_classification_type": "U",
        "meta_norad_cat_id": 40011,
        "meta_element_set_no": 999,
        "meta_rev_at_epoch": 62249,
        "meta_bstar": 0.00019785688,
        "meta_mean_motion_dot": 1.751e-05,
        "meta_mean_motion_ddot": 0,
        "tle_line1": "1 40011U 14033B   25356.22828404  .00001751  00000+0  19786-3 0  9995",
        "tle_line2": "2 40011  97.5407 184.6438 0023913 168.6118 191.5645 14.87514033622493"
      },
      "geometry": {
        "type": "Point",
        "coordinates": [
          13.762127642785357,
          48.41047129817717
        ]
      }
    },
    {
      "type": "Feature",
      "properties": {
        "norad_id": 40013,
        "name": "DEIMOS-2",
        "group": "resource",
        "lat": 52.32965012389254,
        "lon": 62.22706225187264,
        "alt_km": 582.7555114428433,
        "timestamp": "2025-12-22T18:58:53.077792+00:00",
        "meta_object_name": "DEIMOS-2",
        "meta_object_id": "2014-033D",
        "meta_epoch": "2025-12-22T05:32:49.270848",
        "meta_mean_motion": 14.93012585,
        "meta_eccentricity": 0.00015111,
        "meta_inclination": 97.6066,
        "meta_ra_of_asc_node": 231.7183,
        "meta_arg_of_pericenter": 101.4925,
        "meta_mean_anomaly": 258.6464,
        "meta_ephemeris_type": 0,
        "meta_classification_type": "U",
        "meta_norad_cat_id": 40013,
        "meta_element_set_no": 999,
        "meta_rev_at_epoch": 61131,
        "meta_bstar": 0.00016895027,
        "meta_mean_motion_dot": 1.702e-05,
        "meta_mean_motion_ddot": 0,
        "tle_line1": "1 40013U 14033D   25356.23112582  .00001702  00000+0  16895-3 0  9995",
        "tle_line2": "2 40013  97.6066 231.7183 0001511 101.4925 258.6464 14.93012585611314"
      },
      "geometry": {
        "type": "Point",
        "coordinates": [
          62.22706225187264,
          52.32965012389254
        ]
      }
    },
    {
      "type": "Feature",
      "properties": {
        "norad_id": 40015,
        "name": "HODOYOSHI-3",
        "group": "resource",
        "lat": -39.44702907856809,
        "lon": 168.513440522802,
        "alt_km": 626.9422585176253,
        "timestamp": "2025-12-22T18:58:53.077802+00:00",
        "meta_object_name": "HODOYOSHI-3",
        "meta_object_id": "2014-033F",
        "meta_epoch": "2025-12-22T06:13:21.301248",
        "meta_mean_motion": 14.84837528,
        "meta_eccentricity": 0.00323432,
        "meta_inclination": 97.6205,
        "meta_ra_of_asc_node": 161.6807,
        "meta_arg_of_pericenter": 215.5521,
        "meta_mean_anomaly": 144.354,
        "meta_ephemeris_type": 0,
        "meta_classification_type": "U",
        "meta_norad_cat_id": 40015,
        "meta_element_set_no": 999,
        "meta_rev_at_epoch": 62136,
        "meta_bstar": 0.00018152713,
        "meta_mean_motion_dot": 1.504e-05,
        "meta_mean_motion_ddot": 0,
        "tle_line1": "1 40015U 14033F   25356.25927432  .00001504  00000+0  18153-3 0  9996",
        "tle_line2": "2 40015  97.6205 161.6807 0032343 215.5521 144.3540 14.84837528621365"
      },
      "geometry": {
        "type": "Point",
        "coordinates": [
          168.513440522802,
          -39.44702907856809
        ]
      }
    },
    {
      "type": "Feature",
      "properties": {
        "norad_id": 40053,
        "name": "SPOT 7",
        "group": "resource",
        "lat": -71.07768597181725,
        "lon": -145.87803376588272,
        "alt_km": 699.1396929328184,
        "timestamp": "2025-12-22T18:58:53.077812+00:00",
        "meta_object_name": "SPOT 7",
        "meta_object_id": "2014-034A",
        "meta_epoch": "2025-12-22T06:19:11.199648",
        "meta_mean_motion": 14.60744125,
        "meta_eccentricity": 0.00015525,
        "meta_inclination": 98.0897,
        "meta_ra_of_asc_node": 58.1195,
        "meta_arg_of_pericenter": 84.1163,
        "meta_mean_anomaly": 276.0215,
        "meta_ephemeris_type": 0,
        "meta_classification_type": "U",
        "meta_norad_cat_id": 40053,
        "meta_element_set_no": 999,
        "meta_rev_at_epoch": 61130,
        "meta_bstar": 6.3483716e-05,
        "meta_mean_motion_dot": 2.64e-06,
        "meta_mean_motion_ddot": 0,
        "tle_line1": "1 40053U 14034A   25356.26332407  .00000264  00000+0  63484-4 0  9992",
        "tle_line2": "2 40053  98.0897  58.1195 0001552  84.1163 276.0215 14.60744125611308"
      },
      "geometry": {
        "type": "Point",
        "coordinates": [
          -145.87803376588272,
          -71.07768597181725
        ]
      }
    },
    {
      "type": "Feature",
      "properties": {
        "norad_id": 40072,
        "name": "SKYSAT-B",
        "group": "resource",
        "lat": 67.69421334169432,
        "lon": -79.98315953113924,
        "alt_km": 596.71452969663,
        "timestamp": "2025-12-22T18:58:53.077822+00:00",
        "meta_object_name": "SKYSAT-B",
        "meta_object_id": "2014-037D",
        "meta_epoch": "2025-12-21T18:27:09.238752",
        "meta_mean_motion": 14.87356718,
        "meta_eccentricity": 0.00067041,
        "meta_inclination": 98.3624,
        "meta_ra_of_asc_node": 299.9522,
        "meta_arg_of_pericenter": 124.7394,
        "meta_mean_anomaly": 235.4453,
        "meta_ephemeris_type": 0,
        "meta_classification_type": "U",
        "meta_norad_cat_id": 40072,
        "meta_element_set_no": 999,
        "meta_rev_at_epoch": 61958,
        "meta_bstar": 0.00015196295,
        "meta_mean_motion_dot": 1.312e-05,
        "meta_mean_motion_ddot": 0,
        "tle_line1": "1 40072U 14037D   25355.76885693  .00001312  00000+0  15196-3 0  9991",
        "tle_line2": "2 40072  98.3624 299.9522 0006704 124.7394 235.4453 14.87356718619587"
      },
      "geometry": {
        "type": "Point",
        "coordinates": [
          -79.98315953113924,
          67.69421334169432
        ]
      }
    },
    {
      "type": "Feature",
      "properties": {
        "norad_id": 40115,
        "name": "WORLDVIEW-3 (WV-3)",
        "group": "resource",
        "lat": -57.87760209537892,
        "lon": -123.79086059194721,
        "alt_km": 622.1177489350093,
        "timestamp": "2025-12-22T18:58:53.077832+00:00",
        "meta_object_name": "WORLDVIEW-3 (WV-3)",
        "meta_object_id": "2014-048A",
        "meta_epoch": "2025-12-22T04:58:10.463520",
        "meta_mean_motion": 14.84668757,
        "meta_eccentricity": 0.00018782,
        "meta_inclination": 97.8768,
        "meta_ra_of_asc_node": 68.371,
        "meta_arg_of_pericenter": 133.6034,
        "meta_mean_anomaly": 226.5337,
        "meta_ephemeris_type": 0,
        "meta_classification_type": "U",
        "meta_norad_cat_id": 40115,
        "meta_element_set_no": 999,
        "meta_rev_at_epoch": 61564,
        "meta_bstar": 0.00012594974,
        "meta_mean_motion_dot": 1.012e-05,
        "meta_mean_motion_ddot": 0,
        "tle_line1": "1 40115U 14048A   25356.20706555  .00001012  00000+0  12595-3 0  9997",
        "tle_line2": "2 40115  97.8768  68.3710 0001878 133.6034 226.5337 14.84668757615643"
      },
      "geometry": {
        "type": "Point",
        "coordinates": [
          -123.79086059194721,
          -57.87760209537892
        ]
      }
    }
  ]
}